[{"OBJECT_NAME":"KSM1-C","OBJECT_ID":"2020-081B","EPOCH":"2026-03-09T23:03:28.272960","MEAN_MOTION":15.249265,"ECCENTRICITY":8.294e-5,"INCLINATION":36.8937,"RA_OF_ASC_NODE":310.7323,"ARG_OF_PERICENTER":75.7221,"MEAN_ANOMALY":284.362,"EPHEMERIS_TYPE":0,"CLASSIFICATION_TYPE":"U","NORAD_CAT_ID":46906,"ELEMENT_SET_NO":999,"REV_AT_EPOCH":29400,"BSTAR":0.00049583858,"MEAN_MOTION_DOT":0.0001256,"MEAN_MOTION_DDOT":0},{"OBJECT_NAME":"STARLINK-30608","OBJECT_ID":"2023-160S","EPOCH":"2026-03-09T09:31:54.077088","MEAN_MOTION":15.26739179,"ECCENTRICITY":0.00021219,"INCLINATION":43.0044,"RA_OF_ASC_NODE":79.3124,"ARG_OF_PERICENTER":278.4884,"MEAN_ANOMALY":81.5727,"EPHEMERIS_TYPE":0,"CLASSIFICATION_TYPE":"U","NORAD_CAT_ID":58091,"ELEMENT_SET_NO":999,"REV_AT_EPOCH":13290,"BSTAR":-4.584416e-5,"MEAN_MOTION_DOT":-1.49e-5,"MEAN_MOTION_DDOT":0}]
